LUME 1                  
1 43908U 18111AJ  22335.13378983  .00012433  00000+0  37569-3 0  9998
2 43908  97.1667 217.8301 0015673 190.4542 169.6378 15.34248408218911
AOBA VELOX-IV           
1 43940U 19003J   22335.07125247  .00046101  00000+0  86652-3 0  9997
2 43940  97.1094   6.9046 0010958 257.2559 102.7468 15.48380350215806
MOVE-IIB                
1 44398U 19038N   22335.90045080  .00015153  00000+0  63515-3 0  9997
2 44398  97.6470 307.4525 0016916 271.3386  88.5914 15.23484647188480
SONATE                  
1 44400U 19038Q   22333.00823403  .00005408  00000+0  28008-3 0  9993
2 44400  97.6627 302.6183 0020780 288.0775  71.8194 15.16455170187852
LUCKY-7                 
1 44406U 19038W   22335.85690793  .00007178  00000+0  35680-3 0  9998
2 44406  97.6604 306.2344 0019528 274.1807  85.7194 15.17799181188334
BEESAT 9                
1 44412U 19038AC  22335.86180203  .00010882  00000+0  50501-3 0  9991
2 44412  97.6564 306.8909 0016622 277.7315  82.2032 15.20095627188098
JAISAT-1                
1 44419U 19038F   22335.40104740  .00009928  00000+0  45542-3 0  9998
2 44419  97.6565 307.3876 0015614 276.1578  83.7878 15.20535934188396
DUCHIFAT-3              
1 44854U 19089C   22335.82434103  .00003435  00000+0  25999-3 0  9993
2 44854  36.9645 187.2288 0005923 147.4808 320.0575 15.02442766163107
EYESAT-NANO             
1 44877U 19092E   22335.46033789  .00013637  00000+0  52246-3 0  9997
2 44877  97.4599 159.1004 0011406 126.1301 234.0994 15.26589844163802
ORBITAL FACTORY 2 (OF-2)
1 45113U 19071C   22335.32514896  .00050014  00000+0  65901-3 0  9998
2 45113  51.6345 312.2494 0011658  68.2706 291.9526 15.57846096159263
M2 PATHFINDER           
1 45727U 20037E   22335.45296516  .00002174  00000+0  21685-3 0  9998
2 45727  97.7407 148.0343 0012007 196.9050 163.1735 14.92537803131737
NETSAT-4                
1 46504U 20068U   22335.58081243  .00004011  00000+0  29023-3 0  9995
2 46504  97.7395 275.2802 0012515 115.1893 245.0624 15.04530563119162
NETSAT-3                
1 46505U 20068V   22335.53466198  .00002274  00000+0  16687-3 0  9998
2 46505  97.7407 275.1256 0011513 120.0012 240.2354 15.04465398119164
NETSAT-1                
1 46506U 20068W   22335.09181253  .00002802  00000+0  20485-3 0  9994
2 46506  97.7406 274.5958 0010043 129.5121 230.7000 15.04421891119092
NETSAT-2                
1 46507U 20068X   22335.63497796  .00003403  00000+0  24777-3 0  9993
2 46507  97.7392 275.1292 0009288 136.0956 224.1013 15.04433548119120
SAI-1 NANOCONNECT-2     
1 47701U 21015C   22335.16811620  .00015916  00000+0  51897-3 0  9992
2 47701  97.4095  51.6047 0009562 216.3091 143.7502 15.31845683 97699
WILDTRACKCUBE-SIMBA     
1 47941U 21022K   22335.87829051  .00003812  00000+0  24695-3 0  9999
2 47941  97.5127 231.7866 0019381 297.7799 120.6879 15.08576958 93226
BEESAT-6                
1 47957U 21022AB  22332.17501713  .00008245  00000+0  49420-3 0  9996
2 47957  97.5121 228.6546 0017965 311.2681  48.7001 15.11092503 92505
SMOG-1                  
1 47964U 21022AJ  22335.50687525  .00008813  00000+0  50520-3 0  9994
2 47964  97.5149 233.3719 0015602 286.0625  73.8888 15.12718078 92113
MMSATS-1                
1 47976U 98067SJ  22335.80667149  .00044513  00000+0  36127-3 0  9997
2 47976  51.6356 198.8908 0003415 169.5544 287.7684 15.70264049 96444
BCCSAT-1                
1 48041U 21022AK  22335.66281729  .00008548  00000+0  50597-3 0  9993
2 48041  97.5151 232.9164 0012658 284.6629  75.3197 15.11607408 92076
BEESAT-5                
1 48083U 21022AM  22332.20614887  .00009861  00000+0  58263-3 0  9998
2 48083  97.5094 228.7222 0017823 310.6489  49.3191 15.11563312 91641
BEESAT-7                
1 48084U 21022AN  22332.69847043  .00008084  00000+0  48175-3 0  9991
2 48084  97.5108 229.1864 0018056 308.6950  51.2665 15.11309754 91303
BEESAT-8                
1 48085U 21022AP  22332.97678892  .00005343  00000+0  32491-3 0  9996
2 48085  97.5122 229.4217 0017977 307.7353  52.2247 15.10733788 91903
LEDSAT                  
1 49069U 21073D   22335.78414092  .00004058  00000+0  25037-3 0  9997
2 49069  97.5087  45.3502 0027760  81.6413 278.7962 15.10157552 71078
HSU-SAT1                
1 53462U 98067UB  22335.42110008  .00057537  00000+0  64841-3 0  9993
2 53462  51.6365 223.5351 0009791 165.0296 195.0989 15.61913996 17294
FUTABA                  
1 53463U 98067UC  22335.15721699  .00079027  00000+0  79730-3 0  9999
2 53463  51.6352 224.0148 0010573 164.0729 196.0600 15.64596492 17260
TUMNANOSAT              
1 53464U 98067UD  22335.53121790  .00117274  00000+0  10417-2 0  9991
2 53464  51.6345 221.2610 0011187 166.1728 193.9576 15.67586913 17336
BEIJING 1               
1 28890U 05043A   22335.79976287  .00000231  00000+0  55851-4 0  9992
2 28890  98.1376  95.3256 0015396  15.1983 344.9679 14.61550826911588
HJ-1A                   
1 33320U 08041A   22335.78534582  .00000366  00000+0  57325-4 0  9991
2 33320  97.6621   0.8749 0022272  49.9246 310.3904 14.78000416767103
HJ-1B                   
1 33321U 08041B   22335.73605620  .00000819  00000+0  11902-3 0  9992
2 33321  97.6777   4.7286 0035547  66.9779 293.5163 14.78051910767096
YAOGAN 4                
1 33446U 08061A   22335.25090084  .00000548  00000+0  83653-4 0  9993
2 33446  97.8335 270.4326 0015249 318.6161  41.3893 14.77597339754221
DEIMOS-1                
1 35681U 09041A   22335.74077479  .00000317  00000+0  57591-4 0  9998
2 35681  97.6935 178.0817 0002762  64.8815 295.2686 14.72185509716380
UK-DMC 2                
1 35683U 09041C   22335.90423183  .00000492  00000+0  86417-4 0  9998
2 35683  97.7092 140.0732 0001848  87.9874 272.1554 14.71611992716137
RISAT 1                 
1 38248U 12017A   22335.78264128  .00004401  00000+0  25220-3 0  9991
2 38248  97.5503 345.4021 0005329  56.1304 304.0433 15.13108862584114
DMC3-FM1                
1 40715U 15032A   22335.95569201  .00000461  00000+0  64240-4 0  9990
2 40715  97.8229 219.2700 0005674 347.9345  12.1735 14.82295123398101
DMC3-FM2                
1 40716U 15032B   22335.91152286  .00000462  00000+0  64376-4 0  9999
2 40716  97.8271 219.9543 0007755 347.4680  12.6338 14.82288195398105
DMC3-FM3                
1 40717U 15032C   22335.93190730  .00000460  00000+0  64084-4 0  9992
2 40717  97.8310 220.9620 0009099 342.9356  17.1556 14.82284702398103
NOAA 15                 
1 25338U 98030A   22335.81620595  .00000124  00000+0  69808-4 0  9993
2 25338  98.6285   3.0408 0010682 164.2992 195.8521 14.26202178276870
DMSP 5D-3 F15 (USA 147) 
1 25991U 99067A   22335.88463147  .00000127  00000+0  86663-4 0  9995
2 25991  99.0643 330.4256 0011055  75.8645  41.9937 14.16604400187475
DMSP 5D-3 F16 (USA 172) 
1 28054U 03048A   22335.84666838  .00000081  00000+0  67015-4 0  9999
2 28054  99.0018 327.6310 0006930 198.1278 256.2347 14.13711186986683
NOAA 18                 
1 28654U 05018A   22335.77105616  .00000180  00000+0  12066-3 0  9993
2 28654  98.9333  45.9392 0013817 215.2160 144.8100 14.12814838903607
METEOSAT-9 (MSG-2)      
1 28912U 05049B   22334.99660937  .00000128  00000+0  00000+0 0  9992
2 28912   6.3974  65.1893 0001505 186.6501 222.4585  1.00274219 62061
EWS-G1 (GOES 13)        
1 29155U 06018A   22335.60943742  .00000040  00000+0  00000+0 0  9999
2 29155   1.0013  93.7547 0006681 145.0780 112.3338  1.00272584 30407
DMSP 5D-3 F17 (USA 191) 
1 29522U 06050A   22335.83795264  .00000108  00000+0  79263-4 0  9999
2 29522  98.7620 347.7238 0010510 140.7291 219.4646 14.14142598829560
FENGYUN 3A              
1 32958U 08026A   22335.61191298  .00000100  00000+0  68346-4 0  9996
2 32958  98.5278 291.5983 0007656 259.2339 100.7975 14.18765812751928
FENGYUN 2E              
1 33463U 08066A   22335.83725705 -.00000204  00000+0  00000+0 0  9996
2 33463   6.2781  64.3030 0001166 268.8873 125.6783  1.00275637 51129
NOAA 19                 
1 33591U 09005A   22335.79154990  .00000135  00000+0  97696-4 0  9993
2 33591  99.1292  13.2963 0014792  79.2242 281.0594 14.12644842711811
GOES 14                 
1 35491U 09033A   22335.57906869 -.00000092  00000+0  00000+0 0  9992
2 35491   0.1948 262.1690 0018146 320.9154 311.6090  1.00271240 49130
METEOR-M 1              
1 35865U 09049A   22335.53749041  .00000082  00000+0  55759-4 0  9991
2 35865  98.5527 300.8047 0003389  96.1183 264.0382 14.22382841685434
DMSP 5D-3 F18 (USA 210) 
1 35951U 09057A   22335.87802346  .00000210  00000+0  13433-3 0  9996
2 35951  98.7440 311.3080 0010799 335.7617  24.3047 14.13596000676762
GOES 15                 
1 36411U 10008A   22335.54873466  .00000054  00000+0  00000+0 0  9999
2 36411   0.1524 282.5532 0003229 279.2730 298.1700  1.00279387 46691
COMS 1                  
1 36744U 10032A   22335.88605983 -.00000342  00000+0  00000+0 0  9990
2 36744   1.5026  91.7166 0000881 138.1926 287.9547  1.00270987 38127
FENGYUN 3B              
1 37214U 10059A   22335.81043393 -.00000027  00000+0  10343-4 0  9992
2 37214  99.0921 344.7644 0021375 242.1761 117.7228 14.14275938624613
SUOMI NPP               
1 37849U 11061A   22335.80600646  .00000086  00000+0  61381-4 0  9991
2 37849  98.7493 272.1376 0001101  90.4854 296.7115 14.19564740574945
FENGYUN 2F              
1 38049U 12002A   22335.82312490 -.00000355  00000+0  00000+0 0  9995
2 38049   4.2016  78.3860 0002457 269.2014 131.7507  1.00269433 39917
METEOSAT-10 (MSG-3)     
1 38552U 12035B   22335.59932628  .00000064  00000+0  00000+0 0  9991
2 38552   1.7968  49.4348 0001681 145.1993 101.1429  1.00273479 37883
METOP-B                 
1 38771U 12049A   22335.81559748  .00000085  00000+0  59066-4 0  9996
2 38771  98.7088  33.2022 0000494 115.8804  30.4567 14.21480058529514
FENGYUN 3C              
1 39260U 13052A   22335.81526331  .00000042  00000+0  41785-4 0  9999
2 39260  98.4415 355.3563 0011665 147.3710 212.8184 14.15962826475607
